NORAD_CAT_ID,OBJECT_NAME,OBJECT_TYPE,EPOCH,MEAN_MOTION,ECCENTRICITY,INCLINATION,RA_OF_ASC_NODE,ARG_OF_PERICENTER,MEAN_ANOMALY,BSTAR,MEAN_MOTION_DOT,MEAN_MOTION_DDOT,TLE_LINE0,TLE_LINE1,TLE_LINE2,SEMIMAJOR_AXIS,PERIOD,APOGEE,PERIGEE,DECAYED
53609.0,STARLINK-4660,PAYLOAD,2024-05-15 18:54:16,15.08827457,0.0001208,53.2171,334.7028,69.3961,290.7161,0.00022862,3.351e-05,0.0,0 STARLINK-4660,1 53609U 22104X   24136.78769191  .00003351  00000-0  22862-3 0  9991,2 53609  53.2171 334.7028 0001208  69.3961 290.7161 15.08827457 94923,6917.919,95.438,540.619,538.948,0.0
53609.0,STARLINK-4660,PAYLOAD,2024-05-16 06:01:58,15.08857813,0.0001537,53.2183,332.6236,77.197,282.9193,0.0022957,0.00036455,0.0,0 STARLINK-4660,1 53609U 22104X   24137.25137305  .00036455  00000-0  22957-2 0  9995,2 53609  53.2183 332.6236 0001537  77.1970 282.9193 15.08857813 94990,6917.826,95.436,540.754,538.628,0.0
53609.0,STARLINK-4660,PAYLOAD,2024-05-16 21:55:49,15.08858653,0.0001192,53.2161,329.6492,82.02,278.0927,0.0019752,0.00031303,0.0,0 STARLINK-4660,1 53609U 22104X   24137.91377314  .00031303  00000-0  19752-2 0  9990,2 53609  53.2161 329.6492 0001192  82.0200 278.0927 15.08858653 95786,6917.823,95.436,540.513,538.864,0.0
53609.0,STARLINK-4660,PAYLOAD,2024-05-17 21:46:39,15.0884511,0.0004981,53.2148,325.1911,67.9712,292.1809,0.0017863,0.00028265,0.0,0 STARLINK-4660,1 53609U 22104X   24138.90740206  .00028265  00000-0  17863-2 0  9998,2 53609  53.2148 325.1911 0004981  67.9712 292.1809 15.08845110 95934,6917.865,95.437,543.176,536.284,0.0
53609.0,STARLINK-4660,PAYLOAD,2024-05-18 05:43:34,15.08822992,7.69e-05,53.2146,323.7044,77.2716,282.8362,0.0015681,0.00024745,0.0,0 STARLINK-4660,1 53609U 22104X   24139.23858964  .00024745  00000-0  15681-2 0  9991,2 53609  53.2146 323.7044 0000769  77.2716 282.8362 15.08822992 95293,6917.932,95.439,540.329,539.265,0.0
53609.0,STARLINK-4660,PAYLOAD,2024-05-18 18:26:38,15.08872237,0.0001246,53.2159,321.3249,70.8091,289.3036,0.0023243,0.0003693,0.0,0 STARLINK-4660,1 53609U 22104X   24139.76850550  .00036930  00000-0  23243-2 0  9994,2 53609  53.2159 321.3249 0001246  70.8091 289.3036 15.08872237 95370,6917.782,95.436,540.509,538.785,0.0
53609.0,STARLINK-4660,PAYLOAD,2024-05-18 21:37:24,15.0889513,0.000155,53.2154,320.7294,76.1264,283.9901,0.0027786,0.00044279,0.0,0 STARLINK-4660,1 53609U 22104X   24139.90098023  .00044279  00000-0  27786-2 0  9990,2 53609  53.2154 320.7294 0001550  76.1264 283.9901 15.08895130 96084,6917.712,95.434,540.649,538.505,0.0
53609.0,STARLINK-4660,PAYLOAD,2024-05-19 18:17:25,15.08820538,0.0001474,53.2159,316.8636,96.2326,263.8834,0.00051275,7.878e-05,0.0,0 STARLINK-4660,1 53609U 22104X   24140.76210290  .00007878  00000-0  51275-3 0  9993,2 53609  53.2159 316.8636 0001474  96.2326 263.8834 15.08820538 95522,6917.94,95.439,540.825,538.785,0.0
53609.0,STARLINK-4660,PAYLOAD,2024-05-19 21:28:12,15.08821293,0.0001346,53.2159,316.2683,99.2845,260.83,0.0022713,0.00036026,0.0,0 STARLINK-4660,1 53609U 22104X   24140.89458715  .00036026  00000-0  22713-2 0  9994,2 53609  53.2159 316.2683 0001346  99.2845 260.8300 15.08821293 95541,6917.938,95.439,540.734,538.871,0.0
53609.0,STARLINK-4660,PAYLOAD,2024-05-20 14:57:27,15.08850604,0.0001322,53.2157,312.9968,94.9068,265.2075,0.0015255,0.00024081,0.0,0 STARLINK-4660,1 53609U 22104X   24141.62323069  .00024081  00000-0  15255-2 0  9990,2 53609  53.2157 312.9968 0001322  94.9068 265.2075 15.08850604 96346,6917.848,95.437,540.628,538.798,0.0
53609.0,STARLINK-4660,PAYLOAD,2024-05-20 18:08:13,15.08860238,0.0001361,53.2162,312.4033,93.1376,266.9772,0.0017401,0.0002753,0.0,0 STARLINK-4660,1 53609U 22104X   24141.75570923  .00027530  00000-0  17401-2 0  9994,2 53609  53.2162 312.4033 0001361  93.1376 266.9772 15.08860238 95677,6917.819,95.436,540.625,538.742,0.0
53609.0,STARLINK-4660,PAYLOAD,2024-05-21 14:48:14,15.0883907,0.0001398,53.2163,308.5377,112.3997,247.7143,0.001055,0.00016542,0.0,0 STARLINK-4660,1 53609U 22104X   24142.61683371  .00016542  00000-0  10550-2 0  9991,2 53609  53.2163 308.5377 0001398 112.3997 247.7143 15.08839070 96498,6917.883,95.438,540.715,538.781,0.0
53609.0,STARLINK-4660,PAYLOAD,2024-05-21 16:23:37,15.08832338,9.72e-05,53.216,308.2413,99.7588,260.3514,0.00093342,0.00014596,0.0,0 STARLINK-4660,1 53609U 22104X   24142.68307513  .00014596  00000-0  93342-3 0  9997,2 53609  53.2160 308.2413 0000972  99.7588 260.3514 15.08832338 95812,6917.904,95.438,540.441,539.096,0.0
53609.0,STARLINK-4660,PAYLOAD,2024-05-21 21:09:47,15.08833841,8.73e-05,53.2157,307.3509,68.1886,291.9199,0.0010741,0.00016845,0.0,0 STARLINK-4660,1 53609U 22104X   24142.88179737  .00016845  00000-0  10741-2 0  9994,2 53609  53.2157 307.3509 0000873  68.1886 291.9199 15.08833841 96534,6917.899,95.438,540.368,539.16,0.0
53609.0,STARLINK-4660,PAYLOAD,2024-05-22 11:28:15,15.0884066,9.58e-05,53.2161,304.6738,86.5164,273.5937,0.0006478,0.00010037,0.0,0 STARLINK-4660,1 53609U 22104X   24143.47795891  .00010037  00000-0  64780-3 0  9995,2 53609  53.2161 304.6738 0000958  86.5164 273.5937 15.08840660 95936,6917.878,95.438,540.406,539.081,0.0
53609.0,STARLINK-4660,PAYLOAD,2024-05-23 14:29:48,15.08854133,0.0001133,53.2152,299.6189,15.1036,344.999,0.00020658,3.003e-05,0.0,0 STARLINK-4660,1 53609U 22104X   24144.60403079  .00003003  00000-0  20658-3 0  9996,2 53609  53.2152 299.6189 0001133  15.1036 344.9990 15.08854133 96798,6917.837,95.437,540.486,538.918,0.0
53609.0,STARLINK-4660,PAYLOAD,2024-05-23 16:05:11,15.08857042,0.000103,53.216,299.3172,88.6404,271.4706,0.00035962,5.443e-05,0.0,0 STARLINK-4660,1 53609U 22104X   24144.67026864  .00005443  00000-0  35962-3 0  9990,2 53609  53.2160 299.3172 0001030  88.6404 271.4706 15.08857042 96113,6917.828,95.436,540.406,538.981,0.0
53609.0,STARLINK-4660,PAYLOAD,2024-05-24 14:20:35,15.08841323,0.0001324,53.2162,295.157,97.5778,262.5365,0.00030648,4.593e-05,0.0,0 STARLINK-4660,1 53609U 22104X   24145.59763079  .00004593  00000-0  30648-3 0  9999,2 53609  53.2162 295.1570 0001324  97.5778 262.5365 15.08841323 96948,6917.876,95.437,540.657,538.825,0.0
53609.0,STARLINK-4660,PAYLOAD,2024-05-24 17:31:20,15.08852629,0.0001179,53.2156,294.5604,97.5808,262.5318,-0.00027709,-4.697e-05,0.0,0 STARLINK-4660,1 53609U 22104X   24145.73010293 -.00004697  00000-0 -27709-3 0  9999,2 53609  53.2156 294.5604 0001179  97.5808 262.5318 15.08852629 96279,6917.842,95.437,540.522,538.891,0.0
53609.0,STARLINK-4660,PAYLOAD,2024-05-25 09:25:12,15.08843765,0.0001268,53.2157,291.588,94.5711,265.5427,0.00011829,1.595e-05,0.0,0 STARLINK-4660,1 53609U 22104X   24146.39250935  .00001595  00000-0  11829-3 0  9999,2 53609  53.2157 291.5880 0001268  94.5711 265.5427 15.08843765 96378,6917.869,95.437,540.611,538.857,0.0
53609.0,STARLINK-4660,PAYLOAD,2024-05-25 14:11:22,15.08837492,0.0001162,53.2154,290.6898,97.3363,262.7761,7.7391e-05,9.44e-06,0.0,0 STARLINK-4660,1 53609U 22104X   24146.59123275  .00000944  00000-0  77391-4 0  9991,2 53609  53.2154 290.6898 0001162  97.3363 262.7761 15.08837492 97091,6917.888,95.438,540.557,538.949,0.0
53609.0,STARLINK-4660,PAYLOAD,2024-05-25 17:22:09,15.0883357,0.000119,53.2165,290.0994,80.0894,280.0233,2.4437e-05,1.01e-06,0.0,0 STARLINK-4660,1 53609U 22104X   24146.72371666  .00000101  00000-0  24437-4 0  9993,2 53609  53.2165 290.0994 0001190  80.0894 280.0233 15.08833570 96429,6917.9,95.438,540.588,538.942,0.0
53609.0,STARLINK-4660,PAYLOAD,2024-05-26 14:02:09,15.08841567,0.000111,53.216,286.2376,82.8829,277.229,9.1687e-05,1.172e-05,0.0,0 STARLINK-4660,1 53609U 22104X   24147.58483478  .00001172  00000-0  91687-4 0  9993,2 53609  53.2160 286.2376 0001110  82.8829 277.2290 15.08841567 97242,6917.876,95.437,540.508,538.973,0.0
53609.0,STARLINK-4660,PAYLOAD,2024-05-26 15:37:32,15.08843227,0.0001237,53.2159,285.94,83.118,276.9953,0.00011266,1.506e-05,0.0,0 STARLINK-4660,1 53609U 22104X   24147.65107431  .00001506  00000-0  11266-3 0  9998,2 53609  53.2159 285.9400 0001237  83.1180 276.9953 15.08843227 96569,6917.871,95.437,540.591,538.88,0.0
53609.0,STARLINK-4660,PAYLOAD,2024-05-27 15:28:19,15.08843185,0.0001101,53.2161,281.4757,81.4551,278.6565,0.00021191,3.087e-05,0.0,0 STARLINK-4660,1 53609U 22104X   24148.64467303  .00003087  00000-0  21191-3 0  9999,2 53609  53.2161 281.4757 0001101  81.4551 278.6565 15.08843185 97406,6917.871,95.437,540.497,538.974,0.0
53609.0,STARLINK-4660,PAYLOAD,2024-05-28 12:08:20,15.0883983,0.0001107,53.216,277.6094,101.7672,258.3444,-4.2284e-05,-9.61e-06,0.0,0 STARLINK-4660,1 53609U 22104X   24149.50579244 -.00000961  00000-0 -42284-4 0  9990,2 53609  53.2160 277.6094 0001107 101.7672 258.3444 15.08839830 96842,6917.881,95.438,540.512,538.98,0.0
53609.0,STARLINK-4660,PAYLOAD,2024-05-28 13:43:43,15.08839697,0.0001156,53.2172,277.3119,113.6232,246.4881,-1.2661e-05,-4.89e-06,0.0,0 STARLINK-4660,1 53609U 22104X   24149.57203449 -.00000489  00000-0 -12661-4 0  9999,2 53609  53.2172 277.3119 0001156 113.6232 246.4881 15.08839697 97540,6917.881,95.438,540.546,538.947,0.0
53609.0,STARLINK-4660,PAYLOAD,2024-05-28 15:19:06,15.0883944,0.000112,53.2172,277.0147,110.7997,249.3115,-2.2281e-05,-6.42e-06,0.0,0 STARLINK-4660,1 53609U 22104X   24149.63827456 -.00000642  00000-0 -22281-4 0  9996,2 53609  53.2172 277.0147 0001120 110.7997 249.3115 15.08839440 97554,6917.882,95.438,540.522,538.972,0.0
53609.0,STARLINK-4660,PAYLOAD,2024-05-29 13:34:30,15.08836537,0.0001038,53.217,272.8524,91.009,269.1021,2.0489e-05,3.8e-07,0.0,0 STARLINK-4660,1 53609U 22104X   24150.56563607  .00000038  00000-0  20489-4 0  9990,2 53609  53.2170 272.8524 0001038  91.0090 269.1021 15.08836537 97692,6917.891,95.438,540.474,539.038,0.0
53609.0,STARLINK-4660,PAYLOAD,2024-05-30 13:25:17,15.08840939,0.000107,53.2173,268.3923,81.6214,278.4899,0.00013467,1.856e-05,0.0,0 STARLINK-4660,1 53609U 22104X   24151.55923249  .00001856  00000-0  13467-3 0  9998,2 53609  53.2173 268.3923 0001070  81.6214 278.4899 15.08840939 97841,6917.878,95.437,540.483,539.002,0.0
